#aV2024  7  7  0  0  0.00000000     288 DD+AD WGS84 FIT  NGA
## 2322      0.00000000   300.00000000 60498 0.0000000000000
+   31     2  3  4  5  6  7  8  9 10 11 12 13 14 15 16 17 18
+         19 20 21 22 23 24 25 26 27 28 29 30 31 32  0  0  0
+          0  0  0  0  0  0  0  0  0  0  0  0  0  0  0  0  0
+          0  0  0  0  0  0  0  0  0  0  0  0  0  0  0  0  0
+          0  0  0  0  0  0  0  0  0  0  0  0  0  0  0  0  0
++         2  2  2  2  2  2  2  2  2  2  2  2  2  2  2  2  2
++         2  2  2  2  2  2  2  2  2  2  2  2  2  2  0  0  0
++         0  0  0  0  0  0  0  0  0  0  0  0  0  0  0  0  0
++         0  0  0  0  0  0  0  0  0  0  0  0  0  0  0  0  0
++         0  0  0  0  0  0  0  0  0  0  0  0  0  0  0  0  0
%c cc cc ccc ccc cccc cccc cccc cccc ccccc ccccc ccccc ccccc
%c cc cc ccc ccc cccc cccc cccc cccc ccccc ccccc ccccc ccccc
%f  0.0000000  0.000000000  0.00000000000  0.000000000000000
%f  0.0000000  0.000000000  0.00000000000  0.000000000000000
%i    0    0    0    0      0      0      0      0         0
%i    0    0    0    0      0      0      0      0         0
/*      NGA, ST. LOUIS,MO.                                  
/*   EPHEMERIS COMPUTED FROM 2 DAYS OF DATA                 
/*   EPOCHA v9 SMOOTHER                                     
/*   G2296 IERS2010 SATIGS SATAPC                           
*  2024  7  7  2 25  0.00000000
P  2 -22791.873393 -13955.644015    129.679510   -403.913003                    
V  2   1588.198302  -1799.951018 -31695.215133      0.072788                    
P  3 -12694.655242 -10251.589590  20822.037609    447.001536                    
V  3   3781.848711 -26454.927605 -10519.877948      0.167756                    
P  4 -20907.147640  -3708.202795  16057.725701    398.550963                    
V  4  18252.481157  -9036.042716  21565.702668      0.078699                    
P  5   6143.018670  23311.642996 -11237.267176   -178.870615                    
V  5  -3052.606157  13831.740032  27552.456536     -0.013153                    
P  6  -6617.280271  13227.690151  22113.541049    176.559161                    
V  6 -22291.468673 -16712.693062   3438.674999     -0.223585                    
P  7 -21384.635626  -2152.320498 -15374.157549    -75.330085                    
V  7 -15095.906134 -13754.181103  21720.268789      0.082304                    
P  8 -12074.692519 -10909.489192 -21169.196988    263.290336                    
V  8  23778.337952 -11882.804309  -7056.303956      0.167474                    
P  9 -24926.369319   6759.061056   6232.685227    263.197835                    
V  9   6122.017958  -5845.746646  30355.457506      0.149494                    
P 10  10458.355531 -20944.852445 -12017.492031    -59.837758                    
V 10    197.975849  15799.580642 -27214.409344     -0.093283                    
P 11   6899.497411  20001.707544  16117.064046   -700.116296                    
V 11 -16902.571656 -11527.151412  21513.977779     -0.071620                    
P 12  11383.754623  13495.062604  19577.846761   -520.192430                    
V 12  -5826.861078  24806.894564 -13472.705632     -0.031166                    
P 13   2482.180145  14914.490774 -22040.019981    662.879854                    
V 13 -26531.985151   7043.353842   2027.450567      0.025149                    
P 14 -13151.806869  17633.079420 -14688.016777    442.833956                    
V 14     37.929660 -19023.139246 -23024.297510      0.089758                    
P 15  13379.601773   9996.328330 -21189.371350    178.266492                    
V 15 -21478.763526  14334.183690  -6781.113350      0.042436                    
P 16  -1207.112814 -24903.245036  -8804.943583   -243.792260                    
V 16   4950.302605 -10069.906542  29330.097312      0.106614                    
P 17 -21445.733011  13787.680205   8158.365894    682.373146                    
V 17  -9892.843946   1292.040923 -29559.502019     -0.070607                    
P 18  20617.774224   1481.193076 -16780.896539   -633.731510                    
V 18  15954.253450  14065.039630  20624.503006     -0.042566                    
P 19 -14774.734866  15604.460323  15165.613499    506.832626                    
V 19 -19453.227137   3851.106042 -23058.944258      0.054239                    
P 20   2106.884355  26550.794229   -588.994714    373.037957                    
V 20  -2841.587304   1003.182373  31500.437799     -0.004066                    
P 21 -20641.129244 -16684.943657  -5097.271169    110.606815                    
V 21   6841.321501   1893.790493 -30242.388184     -0.025076                    
P 22  -9977.346679  23593.770067  -7146.379325    -36.501757                    
V 22   -522.385586  -9869.222823 -29811.690551     -0.046501                    
P 23  14302.006818  -9940.366738 -19962.587389    267.800074                    
V 23  -1148.023157  25411.085885 -13658.407424      0.089902                    
P 24  21623.411115  15586.722954  -3054.897110   -481.939287                    
V 24  -4536.589462   1072.929261 -30564.210177     -0.018545                    
P 25  15185.301139   1836.482094  21380.731150    498.247191                    
V 25  -2602.298215  27863.607728   -282.348144      0.004191                    
P 26   4675.474416 -25394.612726   5166.627689    124.474961                    
V 26   3769.489079   6976.646637  30366.081134     -0.067152                    
P 27    -41.146181 -16202.535642 -21261.345082    -30.469022                    
V 27  24474.466542  -9950.766847   8055.770220     -0.010113                    
P 28   8821.695917 -12387.532634  21765.714205   -320.555206                    
V 28  22740.834933  15746.232536   -254.756310     -0.161264                    
P 29  24933.680682  -2129.971027   9033.241768   -590.803156                    
V 29 -10135.357005   5839.042915  29069.526270      0.018770                    
P 30 -14422.714558   8250.282804 -20614.967332   -362.112138                    
V 30 -20874.018363 -16459.874445   7692.337973      0.064241                    
P 31  -2057.193274 -18376.070130  18703.463615   -226.946960                    
V 31  20338.964306  13524.584152  15730.310972      0.002585                    
P 32  19208.564078 -15726.375477   9373.252699   -613.400959                    
V 32  11708.521004  -2378.160043 -28830.821708      0.017686                    
EOF
